LEMUR-2-PETERG          
1 42841U 17042S   26068.48235713  .00023240  00000+0  81076-3 0  9993
2 42841  97.3980 253.6596 0003700 341.6938  18.4169 15.29611459473171
STARLINK-32445          
1 61546U 24184Q   26068.16601916 -.00000892  00000+0 -18019-4 0  9996
2 61546  53.1627  16.5992 0001088 111.4669 248.6448 15.30185321 78421
